[{"OBJECT_NAME":"FLOCK 4G-8","OBJECT_ID":"2025-009E","EPOCH":"2026-03-09T17:22:17.546016","MEAN_MOTION":15.27623414,"ECCENTRICITY":0.00030503,"INCLINATION":97.4045,"RA_OF_ASC_NODE":151.2834,"ARG_OF_PERICENTER":315.2538,"MEAN_ANOMALY":44.8455,"EPHEMERIS_TYPE":0,"CLASSIFICATION_TYPE":"U","NORAD_CAT_ID":62613,"ELEMENT_SET_NO":999,"REV_AT_EPOCH":6372,"BSTAR":0.0005043806,"MEAN_MOTION_DOT":0.00013559,"MEAN_MOTION_DDOT":0},{"OBJECT_NAME":"STARLINK-33668","OBJECT_ID":"2025-065D","EPOCH":"2026-03-09T11:02:56.243616","MEAN_MOTION":15.27588199,"ECCENTRICITY":0.00014423,"INCLINATION":42.9904,"RA_OF_ASC_NODE":108.4811,"ARG_OF_PERICENTER":73.3421,"MEAN_ANOMALY":286.7589,"EPHEMERIS_TYPE":0,"CLASSIFICATION_TYPE":"U","NORAD_CAT_ID":63402,"ELEMENT_SET_NO":999,"REV_AT_EPOCH":5280,"BSTAR":0.00081705876,"MEAN_MOTION_DOT":0.00022295,"MEAN_MOTION_DDOT":0}]
