FLOCK 4G-8              
1 62613U 25009E   26068.72381419  .00013559  00000+0  50438-3 0  9996
2 62613  97.4045 151.2834 0003050 315.2538  44.8455 15.27623414 63721
STARLINK-33668          
1 63402U 25065D   26068.46037319  .00022295  00000+0  81706-3 0  9992
2 63402  42.9904 108.4811 0001442  73.3421 286.7589 15.27588199 52804
